STARLINK-5895           
1 55964U 23037BC  26068.93316413  .00010921  00000+0  72850-3 0  9993
2 55964  69.9972 260.0280 0004986 264.4993  95.5602 15.07243555164606
STARLING 4              
1 57386U 23100A   26066.02836485 -.00000009  00000+0  55676-5 0  9994
2 57386  99.5115  59.9711 0007803  83.0949 277.1159 15.06148396144525
